CCSDS_OMM_VERS = 2.0
CREATION_DATE  = 
ORIGINATOR     = 

OBJECT_NAME    = STARLINK-35649
OBJECT_ID      = 2025-237M
CENTER_NAME    = EARTH
REF_FRAME      = TEME
TIME_SYSTEM    = UTC
MEAN_ELEMENT_THEORY = SGP/SGP4

EPOCH          = 2025-11-17T16:35:59.042112
MEAN_MOTION    = 15.49362647
ECCENTRICITY   = .0000869
INCLINATION    = 53.1600
RA_OF_ASC_NODE = 205.4822
ARG_OF_PERICENTER = 91.7303
MEAN_ANOMALY   = 268.3806

EPHEMERIS_TYPE = 0
CLASSIFICATION_TYPE = U
NORAD_CAT_ID   = 66125
ELEMENT_SET_NO = 999
REV_AT_EPOCH   = 538
BSTAR          = .14458E-2
MEAN_MOTION_DOT = .80953E-3
MEAN_MOTION_DDOT = 0

CCSDS_OMM_VERS = 2.0
CREATION_DATE  = 
ORIGINATOR     = 

OBJECT_NAME    = STARLINK-35658
OBJECT_ID      = 2025-237N
CENTER_NAME    = EARTH
REF_FRAME      = TEME
TIME_SYSTEM    = UTC
MEAN_ELEMENT_THEORY = SGP/SGP4

EPOCH          = 2025-11-17T22:47:03.123744
MEAN_MOTION    = 15.49406499
ECCENTRICITY   = .0002005
INCLINATION    = 53.1599
RA_OF_ASC_NODE = 204.2438
ARG_OF_PERICENTER = 162.4643
MEAN_ANOMALY   = 197.6436

EPHEMERIS_TYPE = 0
CLASSIFICATION_TYPE = U
NORAD_CAT_ID   = 66126
ELEMENT_SET_NO = 999
REV_AT_EPOCH   = 542
BSTAR          = .15948E-2
MEAN_MOTION_DOT = .89581E-3
MEAN_MOTION_DDOT = 0

CCSDS_OMM_VERS = 2.0
CREATION_DATE  = 
ORIGINATOR     = 

OBJECT_NAME    = STARLINK-35629
OBJECT_ID      = 2025-237P
CENTER_NAME    = EARTH
REF_FRAME      = TEME
TIME_SYSTEM    = UTC
MEAN_ELEMENT_THEORY = SGP/SGP4

EPOCH          = 2025-11-17T22:46:33.649248
MEAN_MOTION    = 15.49372945
ECCENTRICITY   = .0000432
INCLINATION    = 53.1594
RA_OF_ASC_NODE = 204.2430
ARG_OF_PERICENTER = 104.4820
MEAN_ANOMALY   = 255.6237

EPHEMERIS_TYPE = 0
CLASSIFICATION_TYPE = U
NORAD_CAT_ID   = 66127
ELEMENT_SET_NO = 999
REV_AT_EPOCH   = 542
BSTAR          = .11834E-2
MEAN_MOTION_DOT = .66076E-3
MEAN_MOTION_DDOT = 0

CCSDS_OMM_VERS = 2.0
CREATION_DATE  = 
ORIGINATOR     = 

OBJECT_NAME    = STARLINK-35612
OBJECT_ID      = 2025-237Q
CENTER_NAME    = EARTH
REF_FRAME      = TEME
TIME_SYSTEM    = UTC
MEAN_ELEMENT_THEORY = SGP/SGP4

EPOCH          = 2025-11-18T04:00:03.000096
MEAN_MOTION    = 15.39590843
ECCENTRICITY   = .0000969
INCLINATION    = 53.1593
RA_OF_ASC_NODE = 203.4179
ARG_OF_PERICENTER = 82.9730
MEAN_ANOMALY   = 303.0513

EPHEMERIS_TYPE = 0
CLASSIFICATION_TYPE = U
NORAD_CAT_ID   = 66128
ELEMENT_SET_NO = 999
REV_AT_EPOCH   = 552
BSTAR          = .25844E-2
MEAN_MOTION_DOT = .1043E-2
MEAN_MOTION_DDOT = 0

CCSDS_OMM_VERS = 2.0
CREATION_DATE  = 
ORIGINATOR     = 

OBJECT_NAME    = STARLINK-35632
OBJECT_ID      = 2025-237R
CENTER_NAME    = EARTH
REF_FRAME      = TEME
TIME_SYSTEM    = UTC
MEAN_ELEMENT_THEORY = SGP/SGP4

EPOCH          = 2025-11-18T04:00:03.000096
MEAN_MOTION    = 15.39581303
ECCENTRICITY   = .0001103
INCLINATION    = 53.1595
RA_OF_ASC_NODE = 203.3664
ARG_OF_PERICENTER = 94.7090
MEAN_ANOMALY   = 317.0852

EPHEMERIS_TYPE = 0
CLASSIFICATION_TYPE = U
NORAD_CAT_ID   = 66129
ELEMENT_SET_NO = 999
REV_AT_EPOCH   = 552
BSTAR          = .18606E-2
MEAN_MOTION_DOT = .74659E-3
MEAN_MOTION_DDOT = 0

CCSDS_OMM_VERS = 2.0
CREATION_DATE  = 
ORIGINATOR     = 

OBJECT_NAME    = STARLINK-35637
OBJECT_ID      = 2025-237S
CENTER_NAME    = EARTH
REF_FRAME      = TEME
TIME_SYSTEM    = UTC
MEAN_ELEMENT_THEORY = SGP/SGP4

EPOCH          = 2025-11-18T04:00:03.000096
MEAN_MOTION    = 15.39592246
ECCENTRICITY   = .0000678
INCLINATION    = 53.1598
RA_OF_ASC_NODE = 203.3153
ARG_OF_PERICENTER = 48.2202
MEAN_ANOMALY   = 29.2263

EPHEMERIS_TYPE = 0
CLASSIFICATION_TYPE = U
NORAD_CAT_ID   = 66130
ELEMENT_SET_NO = 999
REV_AT_EPOCH   = 552
BSTAR          = .2112E-2
MEAN_MOTION_DOT = .84948E-3
MEAN_MOTION_DDOT = 0

CCSDS_OMM_VERS = 2.0
CREATION_DATE  = 
ORIGINATOR     = 

OBJECT_NAME    = STARLINK-35630
OBJECT_ID      = 2025-237T
CENTER_NAME    = EARTH
REF_FRAME      = TEME
TIME_SYSTEM    = UTC
MEAN_ELEMENT_THEORY = SGP/SGP4

EPOCH          = 2025-11-18T04:00:03.000096
MEAN_MOTION    = 15.39550813
ECCENTRICITY   = .0000878
INCLINATION    = 53.1601
RA_OF_ASC_NODE = 203.2640
ARG_OF_PERICENTER = 115.1167
MEAN_ANOMALY   = 348.2124

EPHEMERIS_TYPE = 0
CLASSIFICATION_TYPE = U
NORAD_CAT_ID   = 66131
ELEMENT_SET_NO = 999
REV_AT_EPOCH   = 552
BSTAR          = .23182E-2
MEAN_MOTION_DOT = .93257E-3
MEAN_MOTION_DDOT = 0

CCSDS_OMM_VERS = 2.0
CREATION_DATE  = 
ORIGINATOR     = 

OBJECT_NAME    = STARLINK-34412
OBJECT_ID      = 2025-237U
CENTER_NAME    = EARTH
REF_FRAME      = TEME
TIME_SYSTEM    = UTC
MEAN_ELEMENT_THEORY = SGP/SGP4

EPOCH          = 2025-11-18T04:00:03.000096
MEAN_MOTION    = 15.42362395
ECCENTRICITY   = .0000856
INCLINATION    = 53.1601
RA_OF_ASC_NODE = 203.2183
ARG_OF_PERICENTER = 65.4214
MEAN_ANOMALY   = 60.4712

EPHEMERIS_TYPE = 0
CLASSIFICATION_TYPE = U
NORAD_CAT_ID   = 66132
ELEMENT_SET_NO = 999
REV_AT_EPOCH   = 544
BSTAR          = -.45651E-1
MEAN_MOTION_DOT = -.1803695E-1
MEAN_MOTION_DDOT = 0

CCSDS_OMM_VERS = 2.0
CREATION_DATE  = 
ORIGINATOR     = 

OBJECT_NAME    = STARLINK-35520
OBJECT_ID      = 2025-237V
CENTER_NAME    = EARTH
REF_FRAME      = TEME
TIME_SYSTEM    = UTC
MEAN_ELEMENT_THEORY = SGP/SGP4

EPOCH          = 2025-11-18T04:00:03.000096
MEAN_MOTION    = 15.45537010
ECCENTRICITY   = .0001342
INCLINATION    = 53.1604
RA_OF_ASC_NODE = 203.1890
ARG_OF_PERICENTER = 65.2920
MEAN_ANOMALY   = 75.5751

EPHEMERIS_TYPE = 0
CLASSIFICATION_TYPE = U
NORAD_CAT_ID   = 66133
ELEMENT_SET_NO = 999
REV_AT_EPOCH   = 552
BSTAR          = -.46901E-1
MEAN_MOTION_DOT = -.2037072E-1
MEAN_MOTION_DDOT = 0

CCSDS_OMM_VERS = 2.0
CREATION_DATE  = 
ORIGINATOR     = 

OBJECT_NAME    = STARLINK-35525
OBJECT_ID      = 2025-237W
CENTER_NAME    = EARTH
REF_FRAME      = TEME
TIME_SYSTEM    = UTC
MEAN_ELEMENT_THEORY = SGP/SGP4

EPOCH          = 2025-11-17T22:43:06.064608
MEAN_MOTION    = 15.49323795
ECCENTRICITY   = .0001173
INCLINATION    = 53.1597
RA_OF_ASC_NODE = 204.2250
ARG_OF_PERICENTER = 68.5897
MEAN_ANOMALY   = 291.5237

EPHEMERIS_TYPE = 0
CLASSIFICATION_TYPE = U
NORAD_CAT_ID   = 66134
ELEMENT_SET_NO = 999
REV_AT_EPOCH   = 542
BSTAR          = .14103E-2
MEAN_MOTION_DOT = .78823E-3
MEAN_MOTION_DDOT = 0

CCSDS_OMM_VERS = 2.0
CREATION_DATE  = 
ORIGINATOR     = 

OBJECT_NAME    = STARLINK-34852
OBJECT_ID      = 2025-237X
CENTER_NAME    = EARTH
REF_FRAME      = TEME
TIME_SYSTEM    = UTC
MEAN_ELEMENT_THEORY = SGP/SGP4

EPOCH          = 2025-11-17T22:42:36.452736
MEAN_MOTION    = 15.49321453
ECCENTRICITY   = .0001228
INCLINATION    = 53.1598
RA_OF_ASC_NODE = 204.2215
ARG_OF_PERICENTER = 69.0753
MEAN_ANOMALY   = 291.0387

EPHEMERIS_TYPE = 0
CLASSIFICATION_TYPE = U
NORAD_CAT_ID   = 66135
ELEMENT_SET_NO = 999
REV_AT_EPOCH   = 538
BSTAR          = .14002E-2
MEAN_MOTION_DOT = .78244E-3
MEAN_MOTION_DDOT = 0

CCSDS_OMM_VERS = 2.0
CREATION_DATE  = 
ORIGINATOR     = 

OBJECT_NAME    = STARLINK-35592
OBJECT_ID      = 2025-237Y
CENTER_NAME    = EARTH
REF_FRAME      = TEME
TIME_SYSTEM    = UTC
MEAN_ELEMENT_THEORY = SGP/SGP4

EPOCH          = 2025-11-17T22:42:06.871104
MEAN_MOTION    = 15.49314172
ECCENTRICITY   = .0001187
INCLINATION    = 53.1597
RA_OF_ASC_NODE = 204.2193
ARG_OF_PERICENTER = 74.7130
MEAN_ANOMALY   = 285.4010

EPHEMERIS_TYPE = 0
CLASSIFICATION_TYPE = U
NORAD_CAT_ID   = 66136
ELEMENT_SET_NO = 999
REV_AT_EPOCH   = 542
BSTAR          = .14911E-2
MEAN_MOTION_DOT = .83387E-3
MEAN_MOTION_DDOT = 0

