STARLINK-35649          
1 66125U 25237M   25321.69165558  .00080953  00000+0  14458-2 0  9995
2 66125  53.1600 205.4822 0000869  91.7303 268.3806 15.49362647  5382
STARLINK-35658          
1 66126U 25237N   25321.94934171  .00089581  00000+0  15948-2 0  9990
2 66126  53.1599 204.2438 0002005 162.4643 197.6436 15.49406499  5429
STARLINK-35629          
1 66127U 25237P   25321.94900057  .00066076  00000+0  11834-2 0  9991
2 66127  53.1594 204.2430 0000432 104.4820 255.6237 15.49372945  5424
STARLINK-35612          
1 66128U 25237Q   25322.16670139  .00104300  00000+0  25844-2 0  9991
2 66128  53.1593 203.4179 0000969  82.9730 303.0513 15.39590843  5524
STARLINK-35632          
1 66129U 25237R   25322.16670139  .00074659  00000+0  18606-2 0  9993
2 66129  53.1595 203.3664 0001103  94.7090 317.0852 15.39581303  5528
STARLINK-35637          
1 66130U 25237S   25322.16670139  .00084948  00000+0  21120-2 0  9992
2 66130  53.1598 203.3153 0000678  48.2202  29.2263 15.39592246  5527
STARLINK-35630          
1 66131U 25237T   25322.16670139  .00093257  00000+0  23182-2 0  9996
2 66131  53.1601 203.2640 0000878 115.1167 348.2124 15.39550813  5523
STARLINK-34412          
1 66132U 25237U   25322.16670139 -.01803695  00000+0 -45651-1 0  9999
2 66132  53.1601 203.2183 0000856  65.4214  60.4712 15.42362395  5449
STARLINK-35520          
1 66133U 25237V   25322.16670139 -.02037072  00000+0 -46901-1 0  9998
2 66133  53.1604 203.1890 0001342  65.2920  75.5751 15.45537010  5520
STARLINK-35525          
1 66134U 25237W   25321.94659797  .00078823  00000+0  14103-2 0  9996
2 66134  53.1597 204.2250 0001173  68.5897 291.5237 15.49323795  5420
STARLINK-34852          
1 66135U 25237X   25321.94625524  .00078244  00000+0  14002-2 0  9993
2 66135  53.1598 204.2215 0001228  69.0753 291.0387 15.49321453  5386
STARLINK-35592          
1 66136U 25237Y   25321.94591286  .00083387  00000+0  14911-2 0  9994
2 66136  53.1597 204.2193 0001187  74.7130 285.4010 15.49314172  5422
